NORAD_CAT_ID,OBJECT_NAME,OBJECT_TYPE,EPOCH,MEAN_MOTION,ECCENTRICITY,INCLINATION,RA_OF_ASC_NODE,ARG_OF_PERICENTER,MEAN_ANOMALY,BSTAR,MEAN_MOTION_DOT,MEAN_MOTION_DDOT,TLE_LINE0,TLE_LINE1,TLE_LINE2,SEMIMAJOR_AXIS,PERIOD,APOGEE,PERIGEE,DECAYED
53929.0,STARLINK-5018,PAYLOAD,2022-11-01 22:00:00,15.73214436,0.0003967,53.2144,65.1566,14.1362,337.2219,0.00037529,0.00052427,0.0,0 STARLINK-5018,1 53929U 22119AV  22305.91667824  .00052427  00000-0  37529-3 0  9997,2 53929  53.2144  65.1566 0003967  14.1362 337.2219 15.73214436  1307,6727.854,91.532,352.38800000000015,347.05,0.0
53929.0,STARLINK-5018,PAYLOAD,2022-11-02 06:00:00,15.73234774,0.0003658,53.2146,63.5052,13.382,66.9514,0.00018296,0.00025177,0.0,0 STARLINK-5018,1 53929U 22119AV  22306.25001157  .00025177  00000-0  18296-3 0  9998,2 53929  53.2146  63.5052 0003658  13.3820  66.9514 15.73234774  6461,6727.795999999999,91.531,352.122,347.2,0.0
53929.0,STARLINK-5018,PAYLOAD,2022-11-02 14:00:01,15.73248304,0.0003901,53.2152,61.8568,9.6813,159.6364,-0.00021424,-0.00030658,0.0,0 STARLINK-5018,1 53929U 22119AV  22306.58334491 -.00030658  00000-0 -21424-3 0  9993,2 53929  53.2152  61.8568 0003901   9.6813 159.6364 15.73248304  1307,6727.757,91.53,352.247,346.99800000000016,0.0
53929.0,STARLINK-5018,PAYLOAD,2022-11-02 22:00:00,15.73256828,0.0003952,53.2148,60.2074,5.0141,253.2482,-0.00054408,-0.00076515,0.0,0 STARLINK-5018,1 53929U 22119AV  22306.91667824 -.00076515  00000-0 -54408-3 0  9999,2 53929  53.2148  60.2074 0003952   5.0141 253.2482 15.73256828  6562,6727.733,91.53,352.25699999999995,346.939,0.0
53929.0,STARLINK-5018,PAYLOAD,2022-11-03 06:00:02,15.7302457,0.0003859,53.2168,58.5389,15.4973,331.795,0.0020092,0.00289149,0.0,0 STARLINK-5018,1 53929U 22119AV  22307.25002315  .00289149  00000-0  20092-2 0  9993,2 53929  53.2168  58.5389 0003859  15.4973 331.7950 15.73024570  6612,6728.395,91.543,352.857,347.664,0.0
53929.0,STARLINK-5018,PAYLOAD,2022-11-03 14:00:01,15.73271343,0.0004095,53.2152,56.9083,2.4454,73.7196,-0.00030943,-0.0004398,0.0,0 STARLINK-5018,1 53929U 22119AV  22307.58334491 -.00043980  00000-0 -30943-3 0  9992,2 53929  53.2152  56.9083 0004095   2.4454  73.7196 15.73271343  6674,6727.691999999999,91.529,352.31199999999984,346.802,0.0
53929.0,STARLINK-5018,PAYLOAD,2022-11-03 22:00:00,15.73279135,0.0004077,53.2149,55.2582,359.1961,165.9575,-0.00072864,-0.00102055,0.0,0 STARLINK-5018,1 53929U 22119AV  22307.91667824 -.00102055  00000-0 -72864-3 0  9995,2 53929  53.2149  55.2582 0004077 359.1961 165.9575 15.73279135  1308,6727.67,91.529,352.277,346.792,0.0
53929.0,STARLINK-5018,PAYLOAD,2022-11-04 14:00:01,15.73282272,0.000387,53.2159,51.9495,1.3707,341.6798,-0.0027804,-0.00375524,0.0,0 STARLINK-5018,1 53929U 22119AV  22308.58334491 -.00375524  00000-0 -27804-2 0  9996,2 53929  53.2159  51.9495 0003870   1.3707 341.6798 15.73282272  1305,6727.661,91.528,352.129,346.922,0.0
53929.0,STARLINK-5018,PAYLOAD,2022-11-04 22:00:01,15.73130717,0.0004176,53.2155,50.3091,3.6726,68.4356,0.0003431,0.00047679,0.0,0 STARLINK-5018,1 53929U 22119AV  22308.91668981  .00047679  00000-0  34310-3 0  9993,2 53929  53.2155  50.3091 0004176   3.6726  68.4356 15.73130717  6880,6728.093000000003,91.537,352.767,347.148,0.0
53929.0,STARLINK-5018,PAYLOAD,2022-11-05 14:00:01,15.73177497,0.000437,53.216,47.0108,3.8409,246.0396,0.00027291,0.00037831,0.0,0 STARLINK-5018,1 53929U 22119AV  22309.58335648  .00037831  00000-0  27291-3 0  9997,2 53929  53.2160  47.0108 0004370   3.8409 246.0396 15.73177497  1300,6727.959,91.534,352.764,346.884,0.0
53929.0,STARLINK-5018,PAYLOAD,2022-11-05 22:00:01,15.73168453,0.0004335,53.2164,45.3499,1.3469,337.4694,-0.00086354,-0.00120021,0.0,0 STARLINK-5018,1 53929U 22119AV  22309.91668981 -.00120021  00000-0 -86354-3 0  9994,2 53929  53.2164  45.3499 0004335   1.3469 337.4694 15.73168453  7032,6727.985,91.535,352.767,346.934,0.0
53929.0,STARLINK-5018,PAYLOAD,2022-11-06 06:00:00,15.73147422,0.0004289,53.2171,43.692,8.2364,59.3348,0.00066309,0.00093304,0.0,0 STARLINK-5018,1 53929U 22119AV  22310.25001157  .00093304  00000-0  66309-3 0  9998,2 53929  53.2171  43.6920 0004289   8.2364  59.3348 15.73147422  7093,6728.045,91.536,352.796,347.024,0.0
53929.0,STARLINK-5018,PAYLOAD,2022-11-06 14:00:01,15.73178668,0.0004347,53.2161,42.0629,358.2278,158.2205,0.00039723,0.00055468,0.0,0 STARLINK-5018,1 53929U 22119AV  22310.58334491  .00055468  00000-0  39723-3 0  9993,2 53929  53.2161  42.0629 0004347 358.2278 158.2205 15.73178668  7141,6727.956,91.534,352.746,346.896,0.0
53929.0,STARLINK-5018,PAYLOAD,2022-11-07 08:00:01,15.73193692,0.0004236,53.2168,38.35,0.7124,85.8417,0.00017209,0.00023599,0.0,0 STARLINK-5018,1 53929U 22119AV  22311.33334491  .00023599  00000-0  17209-3 0  9992,2 53929  53.2168  38.3500 0004236   0.7124  85.8417 15.73193692  7267,6727.913000000001,91.534,352.62800000000016,346.92800000000005,0.0
53929.0,STARLINK-5018,PAYLOAD,2022-11-07 22:00:00,15.73239568,0.0004334,53.2164,35.4639,359.5411,152.6612,-0.0004206,-0.00059374,0.0,0 STARLINK-5018,1 53929U 22119AV  22311.91667824 -.00059374  00000-0 -42060-3 0  9990,2 53929  53.2164  35.4639 0004334 359.5411 152.6612 15.73239568  1309,6727.781999999997,91.531,352.56300000000016,346.732,0.0
53929.0,STARLINK-5018,PAYLOAD,2022-11-08 00:00:02,15.73253165,0.0004259,53.2165,35.0511,358.9492,265.5831,-7.8686e-05,-0.00011684,0.0,0 STARLINK-5018,1 53929U 22119AV  22312.00002315 -.00011684  00000-0 -78686-4 0  9995,2 53929  53.2165  35.0511 0004259 358.9492 265.5831 15.73253165  7361,6727.744000000002,91.53,352.474,346.74300000000005,0.0
53929.0,STARLINK-5018,PAYLOAD,2022-11-08 10:00:01,15.73309191,0.0004269,53.2164,32.9901,357.4215,108.3527,-0.0002911,-0.00041493,0.0,0 STARLINK-5018,1 53929U 22119AV  22312.41668981 -.00041493  00000-0 -29110-3 0  9995,2 53929  53.2164  32.9901 0004269 357.4215 108.3527 15.73309191  7432,6727.584,91.527,352.321,346.577,0.0
53929.0,STARLINK-5018,PAYLOAD,2022-11-08 14:00:01,15.73269862,0.0004349,53.2165,32.1661,356.8676,333.3667,0.00013714,0.00018731,0.0,0 STARLINK-5018,1 53929U 22119AV  22312.58334491  .00018731  00000-0  13714-3 0  9999,2 53929  53.2165  32.1661 0004349 356.8676 333.3667 15.73269862  1306,6727.696,91.529,352.487,346.635,0.0
53929.0,STARLINK-5018,PAYLOAD,2022-11-08 22:00:00,15.73313842,0.0004164,53.2166,30.5152,351.4458,67.8073,-0.00074598,-0.00104596,0.0,0 STARLINK-5018,1 53929U 22119AV  22312.91667824 -.00104596  00000-0 -74598-3 0  9999,2 53929  53.2166  30.5152 0004164 351.4458  67.8073 15.73313842  1306,6727.571,91.527,352.237,346.634,0.0
53929.0,STARLINK-5018,PAYLOAD,2022-11-09 14:00:01,15.73103418,0.0004208,53.2168,27.2174,343.3558,253.8347,6.2171e-05,8.078e-05,0.0,0 STARLINK-5018,1 53929U 22119AV  22313.58334491  .00008078  00000-0  62171-4 0  9995,2 53929  53.2168  27.2174 0004208 343.3558 253.8347 15.73103418  1302,6728.170999999999,91.539,352.867,347.204,0.0
53929.0,STARLINK-5018,PAYLOAD,2022-11-09 22:00:01,15.73119663,0.0004073,53.2164,25.5666,339.58,346.4749,-0.00042877,-0.00060196,0.0,0 STARLINK-5018,1 53929U 22119AV  22313.91668981 -.00060196  00000-0 -42877-3 0  9997,2 53929  53.2164  25.5666 0004073 339.5800 346.4749 15.73119663  7661,6728.124,91.538,352.73,347.249,0.0
53929.0,STARLINK-5018,PAYLOAD,2022-11-10 06:00:00,15.73090722,0.0003982,53.2164,23.9172,339.654,75.1406,0.00043977,0.0006127999999999,0.0,0 STARLINK-5018,1 53929U 22119AV  22314.25001157  .00061280  00000-0  43977-3 0  9996,2 53929  53.2164  23.9172 0003982 339.6540  75.1406 15.73090722  7722,6728.206999999999,91.54,352.751,347.39300000000014,0.0
53929.0,STARLINK-5018,PAYLOAD,2022-11-10 14:00:01,15.73104425,0.0004306,53.2162,22.2699,341.8348,161.7825,0.00069142,0.00097182,0.0,0 STARLINK-5018,1 53929U 22119AV  22314.58334491  .00097182  00000-0  69142-3 0  9994,2 53929  53.2162  22.2699 0004306 341.8348 161.7825 15.73104425  1309,6728.168000000002,91.539,352.93,347.136,0.0
53929.0,STARLINK-5018,PAYLOAD,2022-11-10 22:00:00,15.73176318,0.0004229,53.2163,20.6189,342.2693,250.2015,0.00028241,0.00039173,0.0,0 STARLINK-5018,1 53929U 22119AV  22314.91667824  .00039173  00000-0  28241-3 0  9991,2 53929  53.2163  20.6189 0004229 342.2693 250.2015 15.73176318  1303,6727.9630000000025,91.535,352.673,346.982,0.0
53929.0,STARLINK-5018,PAYLOAD,2022-11-11 08:00:01,15.73246818,0.0004248,53.2164,18.5573,344.7129,88.9017,5.4593e-05,7.062e-05,0.0,0 STARLINK-5018,1 53929U 22119AV  22315.33334491  .00007062  00000-0  54593-4 0  9991,2 53929  53.2164  18.5573 0004248 344.7129  88.9017 15.73246818  7890,6727.762,91.53,352.485,346.769,0.0
53929.0,STARLINK-5018,PAYLOAD,2022-11-11 14:00:01,15.73254279,0.0004434,53.2164,17.3213,344.7801,65.5801,-2.3316e-05,-3.906e-05,0.0,0 STARLINK-5018,1 53929U 22119AV  22315.58334491 -.00003906  00000-0 -23316-4 0  9992,2 53929  53.2164  17.3213 0004434 344.7801  65.5801 15.73254279  1304,6727.74,91.53,352.589,346.622,0.0
53929.0,STARLINK-5018,PAYLOAD,2022-11-11 22:00:00,15.7327997,0.0004276,53.2162,15.6699,341.6648,157.6892,-0.00034288,-0.00048661,0.0,0 STARLINK-5018,1 53929U 22119AV  22315.91667824 -.00048661  00000-0 -34288-3 0  9994,2 53929  53.2162  15.6699 0004276 341.6648 157.6892 15.73279970  1308,6727.667,91.529,352.409,346.655,0.0
53929.0,STARLINK-5018,PAYLOAD,2022-11-12 14:00:01,15.73222695,0.0004448,53.2158,12.3725,339.4014,337.9291,0.00027748,0.00038554,0.0,0 STARLINK-5018,1 53929U 22119AV  22316.58334491  .00038554  00000-0  27748-3 0  9990,2 53929  53.2158  12.3725 0004448 339.4014 337.9291 15.73222695  8080,6727.83,91.532,352.68800000000016,346.70300000000015,0.0
53929.0,STARLINK-5018,PAYLOAD,2022-11-12 22:00:00,15.73243247,0.0004244,53.2159,10.7209,334.8931,71.421,-0.00066271,-0.0009284,0.0,0 STARLINK-5018,1 53929U 22119AV  22316.91667824 -.00092840  00000-0 -66271-3 0  9990,2 53929  53.2159  10.7209 0004244 334.8931  71.4210 15.73243247  8145,6727.772,91.531,352.492,346.782,0.0
